[{"OBJECT_NAME":"STARLINK-32637","OBJECT_ID":"2024-216A","EPOCH":"2026-03-09T12:23:09.361248","MEAN_MOTION":15.27599792,"ECCENTRICITY":9.67e-5,"INCLINATION":42.9983,"RA_OF_ASC_NODE":256.9137,"ARG_OF_PERICENTER":222.7896,"MEAN_ANOMALY":137.288,"EPHEMERIS_TYPE":0,"CLASSIFICATION_TYPE":"U","NORAD_CAT_ID":62032,"ELEMENT_SET_NO":999,"REV_AT_EPOCH":7385,"BSTAR":0.0010629212,"MEAN_MOTION_DOT":0.0002912,"MEAN_MOTION_DDOT":0},{"OBJECT_NAME":"COSMOS 2588","OBJECT_ID":"2025-109A","EPOCH":"2026-03-09T19:28:59.107008","MEAN_MOTION":15.29122656,"ECCENTRICITY":0.0005019,"INCLINATION":72.9704,"RA_OF_ASC_NODE":73.5401,"ARG_OF_PERICENTER":308.678,"MEAN_ANOMALY":51.3966,"EPHEMERIS_TYPE":0,"CLASSIFICATION_TYPE":"U","NORAD_CAT_ID":64095,"ELEMENT_SET_NO":999,"REV_AT_EPOCH":4442,"BSTAR":0.00032611,"MEAN_MOTION_DOT":9.169e-5,"MEAN_MOTION_DDOT":0}]
